[{"OBJECT_NAME":"SJ-11-08","OBJECT_ID":"2014-066A","EPOCH":"2026-03-09T22:53:00.595104","MEAN_MOTION":14.66034371,"ECCENTRICITY":0.0012045,"INCLINATION":98.3343,"RA_OF_ASC_NODE":212.2023,"ARG_OF_PERICENTER":177.4868,"MEAN_ANOMALY":182.6397,"EPHEMERIS_TYPE":0,"CLASSIFICATION_TYPE":"U","NORAD_CAT_ID":40286,"ELEMENT_SET_NO":999,"REV_AT_EPOCH":60667,"BSTAR":0.00021581711,"MEAN_MOTION_DOT":1.134e-5,"MEAN_MOTION_DDOT":0},{"OBJECT_NAME":"THOR BURNER 2 R\/B","OBJECT_ID":"1967-096B","EPOCH":"2026-03-09T19:57:01.093824","MEAN_MOTION":14.69385875,"ECCENTRICITY":0.00826924,"INCLINATION":99.1704,"RA_OF_ASC_NODE":92.175,"ARG_OF_PERICENTER":12.8712,"MEAN_ANOMALY":347.4575,"EPHEMERIS_TYPE":0,"CLASSIFICATION_TYPE":"U","NORAD_CAT_ID":2985,"ELEMENT_SET_NO":999,"REV_AT_EPOCH":7860,"BSTAR":0.00020898327,"MEAN_MOTION_DOT":1.235e-5,"MEAN_MOTION_DDOT":0}]
